{
  "norad_id": 64171,
  "name": "STARLINK-34228",
  "history": [
    {
      "epoch": "2026-03-28T22:02:47.676768",
      "apogee_km": 475.35732187646863,
      "perigee_km": 475.05906429366496,
      "latitude_deg": -30.55220176304568,
      "longitude_deg": -34.713692479766905,
      "semi_major_axis_km": 6853.345193085066,
      "eccentricity": 2.176e-05,
      "inclination_deg": 53.1601,
      "raan_deg": 1.498,
      "arg_perigee_deg": 29.6411,
      "mean_anomaly_deg": 330.4602,
      "mean_motion_rev_day": 15.30202303
    },
    {
      "epoch": "2026-03-29T01:10:54.266880",
      "apogee_km": 475.9702410809268,
      "perigee_km": 474.51595382424694,
      "latitude_deg": -22.605455807120943,
      "longitude_deg": -22.173036799766123,
      "semi_major_axis_km": 6853.380097452587,
      "eccentricity": 0.0001061,
      "inclination_deg": 53.16,
      "raan_deg": 0.8914,
      "arg_perigee_deg": 95.3355,
      "mean_anomaly_deg": 264.7767,
      "mean_motion_rev_day": 15.30190613
    }
  ]
}